[{"OBJECT_NAME":"STARLINK-3511","OBJECT_ID":"2022-016AQ","EPOCH":"2026-03-09T21:20:54.137472","MEAN_MOTION":15.08842842,"ECCENTRICITY":0.00012467,"INCLINATION":53.2182,"RA_OF_ASC_NODE":308.1552,"ARG_OF_PERICENTER":94.3109,"MEAN_ANOMALY":265.8026,"EPHEMERIS_TYPE":0,"CLASSIFICATION_TYPE":"U","NORAD_CAT_ID":51752,"ELEMENT_SET_NO":999,"REV_AT_EPOCH":22373,"BSTAR":-1.2868255e-5,"MEAN_MOTION_DOT":-4.93e-6,"MEAN_MOTION_DDOT":0},{"OBJECT_NAME":"STRIX-2","OBJECT_ID":"2024-248A","EPOCH":"2026-03-09T23:00:54.819648","MEAN_MOTION":15.07630986,"ECCENTRICITY":0.00151844,"INCLINATION":97.6197,"RA_OF_ASC_NODE":25.3276,"ARG_OF_PERICENTER":319.5195,"MEAN_ANOMALY":40.4902,"EPHEMERIS_TYPE":0,"CLASSIFICATION_TYPE":"U","NORAD_CAT_ID":62406,"ELEMENT_SET_NO":999,"REV_AT_EPOCH":6663,"BSTAR":0.00066021351,"MEAN_MOTION_DOT":0.00010025,"MEAN_MOTION_DDOT":0}]
